ONEWEB-0158             
1 48054U 21025N   26197.30434522  .00000226  00000+0  58528-3 0  9999
2 48054  87.8985 314.4249 0001835 108.6956 251.4373 13.13472293257450
ONEWEB-0157             
1 48055U 21025P   26197.25354477  .00000148  00000+0  36910-3 0  9998
2 48055  87.8984 314.4399 0002307  96.3284 263.8108 13.13470978257381
ONEWEB-0162             
1 48056U 21025Q   26197.30589965  .00000279  00000+0  72914-3 0  9996
2 48056  87.8981 314.4300 0001885  95.3373 264.7971 13.13469936257367
ONEWEB-0155             
1 48057U 21025R   26197.31280614  .00000349  00000+0  92200-3 0  9995
2 48057  87.8983 314.4248 0002035  97.9257 262.2103 13.13474078257507
ONEWEB-0149             
1 48058U 21025S   26197.25863157 -.00000003  00000+0 -44239-4 0  9997
2 48058  87.8987 314.4397 0001859  93.8478 266.2864 13.13469316257305
ONEWEB-0148             
1 48059U 21025T   26197.29756494  .00000088  00000+0  20667-3 0  9996
2 48059  87.8978 314.4372 0001921  82.7028 277.4319 13.13470242257430
ONEWEB-0160             
1 48060U 21025U   26197.31449028  .00000367  00000+0  97000-3 0  9998
2 48060  87.8977 314.4299 0001442 118.4736 241.6538 13.13469909257388
ONEWEB-0163             
1 48061U 21025V   26197.29925804  .00000128  00000+0  31643-3 0  9993
2 48061  87.8987 314.4296 0002230  97.0891 263.0492 13.13470141257508
ONEWEB-0159             
1 48062U 21025W   26196.83372570 -.00000022  00000+0 -96322-4 0  9990
2 48062  87.8987 314.5162 0002208  98.3935 261.7444 13.13470172257360
ONEWEB-0164             
1 48063U 21025X   26197.27216590 -.00000242  00000+0 -69849-3 0  9996
2 48063  87.8988 314.4352 0001911 102.0005 258.1339 13.13469723257401
ONEWEB-0167             
1 48064U 21025Y   26197.30011092  .00000146  00000+0  36598-3 0  9997
2 48064  87.8979 314.4367 0002572 107.3376 252.8035 13.13470647257390
ONEWEB-0166             
1 48065U 21025Z   26197.32296049  .00000322  00000+0  84640-3 0  9994
2 48065  87.8988 314.4065 0001958  98.4121 261.7231 13.13469803257479
ONEWEB-0151             
1 48066U 21025AA  26197.24846686  .00000254  00000+0  66026-3 0  9996
2 48066  87.8987 314.4361 0002057 103.6489 256.4869 13.13469700257402
ONEWEB-0170             
1 48067U 21025AB  26197.25692878  .00000067  00000+0  14751-3 0  9990
2 48067  87.8983 314.4365 0001886 116.8319 243.3004 13.13469151257361
ONEWEB-0168             
1 48068U 21025AC  26197.31787778  .00000375  00000+0  99134-3 0  9992
2 48068  87.8987 314.4256 0002030 101.8456 258.2901 13.13469725257383
ONEWEB-0173             
1 48069U 21025AD  26197.30941549  .00000316  00000+0  82999-3 0  9996
2 48069  87.8979 314.4274 0002335 100.0638 260.0755 13.13470135257628
ONEWEB-0171             
1 48070U 21025AE  26196.88958410 -.00000296  00000+0 -84653-3 0  9993
2 48070  87.8979 314.5180 0001992 102.6692 257.4660 13.13469596257380
ONEWEB-0172             
1 48071U 21025AF  26197.32633639  .00000240  00000+0  62116-3 0  9994
2 48071  87.8992 314.4234 0002095 101.8086 258.3278 13.13470273258333
ONEWEB-0174             
1 48072U 21025AG  26197.30772566  .00000318  00000+0  83676-3 0  9996
2 48072  87.8989 314.4254 0001970  95.6722 264.4632 13.13470049257657
ONEWEB-0175             
1 48073U 21025AH  26197.26201053 -.00000051  00000+0 -17392-3 0  9998
2 48073  87.8988 314.4203 0002093 109.0519 251.0837 13.13469337257301
ONEWEB-0177             
1 48074U 21025AJ  26197.27385887 -.00000261  00000+0 -74891-3 0  9998
2 48074  87.8986 314.4358 0002114  94.4187 265.7184 13.13470091257499
ONEWEB-0178             
1 48075U 21025AK  26197.29262185 -.00000088  00000+0 -27485-3 0  9990
2 48075  87.8976 314.4415 0002202 103.2921 256.8454 13.13471267257549
ONEWEB-0108             
1 48076U 21025AL  26196.87096883  .00000114  00000+0  27642-3 0  9997
2 48076  87.8990 314.5080 0001716  96.8029 263.3295 13.13468886257415
ONEWEB-0169             
1 48077U 21025AM  26197.28401830 -.00000256  00000+0 -73488-3 0  9994
2 48077  87.8984 314.4319 0001969  96.1895 263.9458 13.13469876256121
ONEWEB-0176             
1 48210U 21031A   26197.17986770 -.00000064  00000+0 -20680-3 0  9992
2 48210  87.8970 283.9228 0002143 100.8453 259.2918 13.14502516252127
ONEWEB-0184             
1 48211U 21031B   26197.22903145  .00000284  00000+0  73173-3 0  9991
2 48211  87.8975 283.9155 0002647 113.9667 246.1740 13.14502709252103
ONEWEB-0179             
1 48212U 21031C   26197.22586847  .00000213  00000+0  62478-4 0  9997
2 48212  87.8992 279.9849 0221836 162.0874 198.8301 14.25549552253181
ONEWEB-0180             
1 48213U 21031D   26197.23220497  .00000287  00000+0  73829-3 0  9997
2 48213  87.8978 283.9118 0002475  98.5843 261.5567 13.14503219252037
ONEWEB-0218             
1 48214U 21031E   26197.17827908 -.00000035  00000+0 -12908-3 0  9995
2 48214  87.8980 283.9213 0002845 109.0488 251.0950 13.14503620252183
ONEWEB-0209             
1 48215U 21031F   26197.24330577  .00000169  00000+0  42261-3 0  9996
2 48215  87.8970 283.9229 0002235  95.8065 264.3319 13.14503616252198
