OBJECT_NAME,OBJECT_ID,EPOCH,MEAN_MOTION,ECCENTRICITY,INCLINATION,RA_OF_ASC_NODE,ARG_OF_PERICENTER,MEAN_ANOMALY,EPHEMERIS_TYPE,CLASSIFICATION_TYPE,NORAD_CAT_ID,ELEMENT_SET_NO,REV_AT_EPOCH,BSTAR,MEAN_MOTION_DOT,MEAN_MOTION_DDOT
ONEWEB-0158,2021-025N,2026-07-16T07:18:15.427008,13.13472293,.00018351,87.8985,314.4249,108.6956,251.4373,0,U,48054,999,25745,.58527835E-3,.226E-5,0
ONEWEB-0157,2021-025P,2026-07-16T06:05:06.268128,13.13470978,.00023077,87.8984,314.4399,96.3284,263.8108,0,U,48055,999,25738,.36909674E-3,.148E-5,0
ONEWEB-0162,2021-025Q,2026-07-16T07:20:29.729760,13.13469936,.00018851,87.8981,314.4300,95.3373,264.7971,0,U,48056,999,25736,.72914126E-3,.279E-5,0
ONEWEB-0155,2021-025R,2026-07-16T07:30:26.450496,13.13474078,.00020351,87.8983,314.4248,97.9257,262.2103,0,U,48057,999,25750,.92199774E-3,.349E-5,0
ONEWEB-0149,2021-025S,2026-07-16T06:12:25.767648,13.13469316,.00018594,87.8987,314.4397,93.8478,266.2864,0,U,48058,999,25730,-.44238781E-4,-.3E-7,0
ONEWEB-0148,2021-025T,2026-07-16T07:08:29.610816,13.13470242,.00019214,87.8978,314.4372,82.7028,277.4319,0,U,48059,999,25743,.20667289E-3,.88E-6,0
ONEWEB-0160,2021-025U,2026-07-16T07:32:51.960192,13.13469909,.00014428,87.8977,314.4299,118.4736,241.6538,0,U,48060,999,25738,.97000372E-3,.367E-5,0
ONEWEB-0163,2021-025V,2026-07-16T07:10:55.894656,13.13470141,.00022302,87.8987,314.4296,97.0891,263.0492,0,U,48061,999,25750,.31643102E-3,.128E-5,0
ONEWEB-0159,2021-025W,2026-07-15T20:00:33.900480,13.13470172,.0002208,87.8987,314.5162,98.3935,261.7444,0,U,48062,999,25736,-.96322253E-4,-.22E-6,0
ONEWEB-0164,2021-025X,2026-07-16T06:31:55.133760,13.13469723,.00019116,87.8988,314.4352,102.0005,258.1339,0,U,48063,999,25740,-.69849346E-3,-.242E-5,0
ONEWEB-0167,2021-025Y,2026-07-16T07:12:09.583488,13.13470647,.00025725,87.8979,314.4367,107.3376,252.8035,0,U,48064,999,25739,.36598198E-3,.146E-5,0
ONEWEB-0166,2021-025Z,2026-07-16T07:45:03.786336,13.13469803,.00019583,87.8988,314.4065,98.4121,261.7231,0,U,48065,999,25747,.8464018E-3,.322E-5,0
ONEWEB-0151,2021-025AA,2026-07-16T05:57:47.536704,13.13469700,.00020571,87.8987,314.4361,103.6489,256.4869,0,U,48066,999,25740,.6602602E-3,.254E-5,0
ONEWEB-0170,2021-025AB,2026-07-16T06:09:58.646592,13.13469151,.00018869,87.8983,314.4365,116.8319,243.3004,0,U,48067,999,25736,.14750643E-3,.67E-6,0
ONEWEB-0168,2021-025AC,2026-07-16T07:37:44.640192,13.13469725,.00020309,87.8987,314.4256,101.8456,258.2901,0,U,48068,999,25738,.99134377E-3,.375E-5,0
ONEWEB-0173,2021-025AD,2026-07-16T07:25:33.498336,13.13470135,.00023359,87.8979,314.4274,100.0638,260.0755,0,U,48069,999,25762,.82998886E-3,.316E-5,0
ONEWEB-0171,2021-025AE,2026-07-15T21:21:00.066240,13.13469596,.0001992,87.8979,314.5180,102.6692,257.4660,0,U,48070,999,25738,-.84653E-3,-.296E-5,0
ONEWEB-0172,2021-025AF,2026-07-16T07:49:55.464096,13.13470273,.00020951,87.8992,314.4234,101.8086,258.3278,0,U,48071,999,25833,.6211602E-3,.24E-5,0
ONEWEB-0174,2021-025AG,2026-07-16T07:23:07.497024,13.13470049,.00019709,87.8989,314.4254,95.6722,264.4632,0,U,48072,999,25765,.8367625E-3,.318E-5,0
ONEWEB-0175,2021-025AH,2026-07-16T06:17:17.709792,13.13469337,.00020939,87.8988,314.4203,109.0519,251.0837,0,U,48073,999,25730,-.17391737E-3,-.51E-6,0
ONEWEB-0177,2021-025AJ,2026-07-16T06:34:21.406368,13.13470091,.00021148,87.8986,314.4358,94.4187,265.7184,0,U,48074,999,25749,-.74890784E-3,-.261E-5,0
ONEWEB-0178,2021-025AK,2026-07-16T07:01:22.527840,13.13471267,.00022028,87.8976,314.4415,103.2921,256.8454,0,U,48075,999,25754,-.27485396E-3,-.88E-6,0
ONEWEB-0108,2021-025AL,2026-07-15T20:54:11.706912,13.13468886,.0001716,87.8990,314.5080,96.8029,263.3295,0,U,48076,999,25741,.27642E-3,.114E-5,0
ONEWEB-0169,2021-025AM,2026-07-16T06:48:59.181120,13.13469876,.00019695,87.8984,314.4319,96.1895,263.9458,0,U,48077,999,25612,-.73487884E-3,-.256E-5,0
ONEWEB-0176,2021-031A,2026-07-16T04:19:00.569280,13.14502516,.00021432,87.8970,283.9228,100.8453,259.2918,0,U,48210,999,25212,-.20680288E-3,-.64E-6,0
ONEWEB-0184,2021-031B,2026-07-16T05:29:48.317280,13.14502709,.00026471,87.8975,283.9155,113.9667,246.1740,0,U,48211,999,25210,.73172741E-3,.284E-5,0
ONEWEB-0179,2021-031C,2026-07-16T05:25:15.035808,14.25549552,.0221836,87.8992,279.9849,162.0874,198.8301,0,U,48212,999,25318,.62477539E-4,.213E-5,0
ONEWEB-0180,2021-031D,2026-07-16T05:34:22.509408,13.14503219,.00024755,87.8978,283.9118,98.5843,261.5567,0,U,48213,999,25203,.73829428E-3,.287E-5,0
ONEWEB-0218,2021-031E,2026-07-16T04:16:43.312512,13.14503620,.00028458,87.8980,283.9213,109.0488,251.0950,0,U,48214,999,25218,-.12907751E-3,-.35E-6,0
ONEWEB-0209,2021-031F,2026-07-16T05:50:21.618528,13.14503616,.00022357,87.8970,283.9229,95.8065,264.3319,0,U,48215,999,25219,.42261059E-3,.169E-5,0
